LANDSAT 9               
1 49260U 21088A   24153.78880120  .00000566  00000+0  13567-3 0  9990
2 49260  98.1874 223.6681 0001029  90.3225 269.8091 14.57111659142441
